start=new Date('2023-04-14T00:00:00.000Z').valueOf();
sats=[{"PERIOD":"95.589","MEAN_MOTION_DOT":"0.00031362","INCLINATION":"53.0536","OBJECT_TYPE":"PAYLOAD","FILE":"3886887","CENTER_NAME":"EARTH","COUNTRY_CODE":"US","ELEMENT_SET_NO":"999","RA_OF_ASC_NODE":"229.0236","BSTAR":"0.00211200000000","MEAN_ELEMENT_THEORY":"SGP4","TLE_LINE1":"1 45389U 20019AF  23103.82526189  .00031362  00000-0  21120-2 0  9994","RCS_SIZE":"LARGE","MEAN_MOTION":"15.06452201","PERIAPSIS":"546.747","ARG_OF_PERICENTER":"70.6545","EPHEMERIS_TYPE":"0","MEAN_MOTION_DDOT":"0.0000000000000","REV_AT_EPOCH":"17011","GP_ID":"230025210","SEMIMAJOR_AXIS":"6925.189","MEAN_ANOMALY":"289.4492","TIME_SYSTEM":"UTC","TLE_LINE2":"2 45389  53.0536 229.0236 0000442  70.6545 289.4492 15.06452201170118","OBJECT_ID":"2020-019AF","DECAY_DATE":null,"ECCENTRICITY":"0.00004420","REF_FRAME":"TEME","APOAPSIS":"547.360","CLASSIFICATION_TYPE":"U","LAUNCH_DATE":"2020-03-18","SITE":"AFETR","NORAD_CAT_ID":"45389","EPOCH":"2023-04-13T19:48:22.627296","OBJECT_NAME":"STARLINK-1283"},{"APOAPSIS":"548.037","REF_FRAME":"TEME","ECCENTRICITY":"0.00013260","DECAY_DATE":null,"OBJECT_ID":"2020-019AG","TLE_LINE2":"2 45390  53.0540 229.4390 0001326  63.9361 296.1765 15.06430968170094","TIME_SYSTEM":"UTC","MEAN_ANOMALY":"296.1765","SEMIMAJOR_AXIS":"6925.254","REV_AT_EPOCH":"17009","GP_ID":"230025573","OBJECT_NAME":"STARLINK-1284","EPOCH":"2023-04-13T17:35:42.775872","NORAD_CAT_ID":"45390","LAUNCH_DATE":"2020-03-18","SITE":"AFETR","CLASSIFICATION_TYPE":"U","MEAN_ELEMENT_THEORY":"SGP4","BSTAR":"0.00201010000000","RA_OF_ASC_NODE":"229.4390","ELEMENT_SET_NO":"999","COUNTRY_CODE":"US","CENTER_NAME":"EARTH","FILE":"3886887","OBJECT_TYPE":"PAYLOAD","INCLINATION":"53.0540","MEAN_MOTION_DOT":"0.00029811","PERIOD":"95.590","MEAN_MOTION_DDOT":"0.0000000000000","ARG_OF_PERICENTER":"63.9361","EPHEMERIS_TYPE":"0","PERIAPSIS":"546.200","MEAN_MOTION":"15.06430968","TLE_LINE1":"1 45390U 20019AG  23103.73313398  .00029811  00000-0  20101-2 0  9996","RCS_SIZE":"LARGE"},{"TLE_LINE1":"1 45391U 20019AH  23103.74691536  .00019206  00000-0  13037-2 0  9998","RCS_SIZE":"LARGE","MEAN_MOTION":"15.06429606","PERIAPSIS":"546.329","MEAN_MOTION_DDOT":"0.0000000000000","ARG_OF_PERICENTER":"102.4426","EPHEMERIS_TYPE":"0","OBJECT_TYPE":"PAYLOAD","FILE":"3886805","MEAN_MOTION_DOT":"0.00019206","INCLINATION":"53.0522","PERIOD":"95.590","BSTAR":"0.00130370000000","MEAN_ELEMENT_THEORY":"SGP4","ELEMENT_SET_NO":"999","RA_OF_ASC_NODE":"229.3598","CENTER_NAME":"EARTH","COUNTRY_CODE":"US","EPOCH":"2023-04-13T17:55:33.487104","NORAD_CAT_ID":"45391","SITE":"AFETR","LAUNCH_DATE":"2020-03-18","CLASSIFICATION_TYPE":"U","OBJECT_NAME":"STARLINK-1289","DECAY_DATE":null,"TLE_LINE2":"2 45391  53.0522 229.3598 0001146 102.4426 257.6691 15.06429606169821","OBJECT_ID":"2020-019AH","MEAN_ANOMALY":"257.6691","TIME_SYSTEM":"UTC","GP_ID":"230023509","REV_AT_EPOCH":"16982","SEMIMAJOR_AXIS":"6925.258","APOAPSIS":"547.916","REF_FRAME":"TEME","ECCENTRICITY":"0.00011460"},{"INCLINATION":"52.9796","MEAN_MOTION_DOT":"0.00108590","PERIOD":"93.767","FILE":"3886905","OBJECT_TYPE":"PAYLOAD","RA_OF_ASC_NODE":"186.6744","ELEMENT_SET_NO":"999","COUNTRY_CODE":"US","CENTER_NAME":"EARTH","MEAN_ELEMENT_THEORY":"SGP4","BSTAR":"0.00304630000000","PERIAPSIS":"454.222","TLE_LINE1":"1 45392U 20019AJ  23103.51869920  .00108590  00000-0  30463-2 0  9995","RCS_SIZE":"LARGE","MEAN_MOTION":"15.35716495","MEAN_MOTION_DDOT":"0.0000000000000","EPHEMERIS_TYPE":"0","ARG_OF_PERICENTER":"343.5676","TIME_SYSTEM":"UTC","MEAN_ANOMALY":"16.5107","SEMIMAJOR_AXIS":"6836.930","GP_ID":"230025592","REV_AT_EPOCH":"17033","DECAY_DATE":null,"OBJECT_ID":"2020-019AJ","TLE_LINE2":"2 45392  52.9796 186.6744 0006689 343.5676  16.5107 15.35716495170332","REF_FRAME":"TEME","ECCENTRICITY":"0.00066890","APOAPSIS":"463.368","SITE":"AFETR","LAUNCH_DATE":"2020-03-18","CLASSIFICATION_TYPE":"U","EPOCH":"2023-04-13T12:26:55.610880","NORAD_CAT_ID":"45392","OBJECT_NAME":"STARLINK-1290"},{"REF_FRAME":"TEME","ECCENTRICITY":"0.00010150","APOAPSIS":"547.834","MEAN_ANOMALY":"265.5792","TIME_SYSTEM":"UTC","GP_ID":"230025214","REV_AT_EPOCH":"16984","SEMIMAJOR_AXIS":"6925.266","DECAY_DATE":null,"OBJECT_ID":"2020-019AK","TLE_LINE2":"2 45393  53.0513 229.8350 0001015  94.5312 265.5792 15.06426880169847","OBJECT_NAME":"STARLINK-1291","SITE":"AFETR","LAUNCH_DATE":"2020-03-18","CLASSIFICATION_TYPE":"U","EPOCH":"2023-04-13T15:28:19.829280","NORAD_CAT_ID":"45393","ELEMENT_SET_NO":"999","RA_OF_ASC_NODE":"229.8350","CENTER_NAME":"EARTH","COUNTRY_CODE":"US","BSTAR":"0.00273700000000","MEAN_ELEMENT_THEORY":"SGP4","MEAN_MOTION_DOT":"0.00040752","INCLINATION":"53.0513","PERIOD":"95.590","OBJECT_TYPE":"PAYLOAD","FILE":"3886905","MEAN_MOTION_DDOT":"0.0000000000000","ARG_OF_PERICENTER":"94.5312","EPHEMERIS_TYPE":"0","TLE_LINE1":"1 45393U 20019AK  23103.64467395  .00040752  00000-0  27370-2 0  9998","RCS_SIZE":"LARGE","MEAN_MOTION":"15.06426880","PERIAPSIS":"546.428"},{"NORAD_CAT_ID":"45394","EPOCH":"2023-04-13T14:35:15.265248","CLASSIFICATION_TYPE":"U","SITE":"AFETR","LAUNCH_DATE":"2020-03-18","OBJECT_NAME":"STARLINK-1292","TLE_LINE2":"2 45394  53.0518 229.9951 0001378  74.2049 285.9092 15.06441575169819","OBJECT_ID":"2020-019AL","DECAY_DATE":null,"REV_AT_EPOCH":"16981","GP_ID":"230025221","SEMIMAJOR_AXIS":"6925.221","MEAN_ANOMALY":"285.9092","TIME_SYSTEM":"UTC","APOAPSIS":"548.040","ECCENTRICITY":"0.00013780","REF_FRAME":"TEME","MEAN_MOTION":"15.06441575","TLE_LINE1":"1 45394U 20019AL  23103.60781557  .00019422  00000-0  13177-2 0  9994","RCS_SIZE":"LARGE","PERIAPSIS":"546.132","EPHEMERIS_TYPE":"0","ARG_OF_PERICENTER":"74.2049","MEAN_MOTION_DDOT":"0.0000000000000","OBJECT_TYPE":"PAYLOAD","FILE":"3886905","PERIOD":"95.590","MEAN_MOTION_DOT":"0.00019422","INCLINATION":"53.0518","BSTAR":"0.00131770000000","MEAN_ELEMENT_THEORY":"SGP4","CENTER_NAME":"EARTH","COUNTRY_CODE":"US","ELEMENT_SET_NO":"999","RA_OF_ASC_NODE":"229.9951"},{"DECAY_DATE":null,"TLE_LINE2":"2 45395  53.0527 229.8691 0001304  73.1888 286.9244 15.06425489169847","OBJECT_ID":"2020-019AM","MEAN_ANOMALY":"286.9244","TIME_SYSTEM":"UTC","GP_ID":"230025618","REV_AT_EPOCH":"16984","SEMIMAJOR_AXIS":"6925.270","APOAPSIS":"548.038","REF_FRAME":"TEME","ECCENTRICITY":"0.00013040","EPOCH":"2023-04-13T15:17:43.093248","NORAD_CAT_ID":"45395","LAUNCH_DATE":"2020-03-18","SITE":"AFETR","CLASSIFICATION_TYPE":"U","OBJECT_NAME":"STARLINK-1297","OBJECT_TYPE":"PAYLOAD","FILE":"3886890","MEAN_MOTION_DOT":"0.00029828","INCLINATION":"53.0527","PERIOD":"95.591","BSTAR":"0.00201150000000","MEAN_ELEMENT_THEORY":"SGP4","ELEMENT_SET_NO":"999","RA_OF_ASC_NODE":"229.8691","CENTER_NAME":"EARTH","COUNTRY_CODE":"US","TLE_LINE1":"1 45395U 20019AM  23103.63730432  .00029828  00000-0  20115-2 0  9995","MEAN_MOTION":"15.06425489","RCS_SIZE":"LARGE","PERIAPSIS":"546.232","MEAN_MOTION_DDOT":"0.0000000000000","ARG_OF_PERICENTER":"73.1888","EPHEMERIS_TYPE":"0"},{"OBJECT_ID":"2020-019AN","TLE_LINE2":"2 45396  53.0531 229.3565 0001066  87.5445 272.5666 15.06454221169813","DECAY_DATE":null,"SEMIMAJOR_AXIS":"6925.182","REV_AT_EPOCH":"16981","GP_ID":"230025640","TIME_SYSTEM":"UTC","MEAN_ANOMALY":"272.5666","APOAPSIS":"547.786","ECCENTRICITY":"0.00010660","REF_FRAME":"TEME","NORAD_CAT_ID":"45396","EPOCH":"2023-04-13T18:02:14.108352","CLASSIFICATION_TYPE":"U","SITE":"AFETR","LAUNCH_DATE":"2020-03-18","OBJECT_NAME":"STARLINK-1303","FILE":"3886891","OBJECT_TYPE":"PAYLOAD","PERIOD":"95.589","INCLINATION":"53.0531","MEAN_MOTION_DOT":"0.00034197","MEAN_ELEMENT_THEORY":"SGP4","BSTAR":"0.00230020000000","COUNTRY_CODE":"US","CENTER_NAME":"EARTH","RA_OF_ASC_NODE":"229.3565","ELEMENT_SET_NO":"999","PERIAPSIS":"546.309","MEAN_MOTION":"15.06454221","TLE_LINE1":"1 45396U 20019AN  23103.75155218  .00034197  00000-0  23002-2 0  9995","RCS_SIZE":"LARGE","EPHEMERIS_TYPE":"0","ARG_OF_PERICENTER":"87.5445","MEAN_MOTION_DDOT":"0.0000000000000"},{"RA_OF_ASC_NODE":"231.0940","ELEMENT_SET_NO":"999","COUNTRY_CODE":"US","CENTER_NAME":"EARTH","MEAN_ELEMENT_THEORY":"SGP4","BSTAR":"0.00228100000000","INCLINATION":"53.0523","MEAN_MOTION_DOT":"0.00033877","PERIOD":"95.591","FILE":"3886564","OBJECT_TYPE":"PAYLOAD","MEAN_MOTION_DDOT":"0.0000000000000","ARG_OF_PERICENTER":"55.1964","EPHEMERIS_TYPE":"0","PERIAPSIS":"546.100","MEAN_MOTION":"15.06420643","TLE_LINE1":"1 45397U 20019AP  23103.36453768  .00033877  00000-0  22810-2 0  9994","RCS_SIZE":"LARGE","REF_FRAME":"TEME","ECCENTRICITY":"0.00015170","APOAPSIS":"548.201","TIME_SYSTEM":"UTC","MEAN_ANOMALY":"304.9167","SEMIMAJOR_AXIS":"6925.285","GP_ID":"230010459","REV_AT_EPOCH":"16986","DECAY_DATE":null,"TLE_LINE2":"2 45397  53.0523 231.0940 0001517  55.1964 304.9167 15.06420643169862","OBJECT_ID":"2020-019AP","OBJECT_NAME":"STARLINK-1307","SITE":"AFETR","LAUNCH_DATE":"2020-03-18","CLASSIFICATION_TYPE":"U","EPOCH":"2023-04-13T08:44:56.055552","NORAD_CAT_ID":"45397"},{"OBJECT_NAME":"STARLINK-1312","NORAD_CAT_ID":"45398","EPOCH":"2023-04-13T02:12:09.380736","CLASSIFICATION_TYPE":"U","LAUNCH_DATE":"2020-03-18","SITE":"AFETR","APOAPSIS":"547.415","ECCENTRICITY":"0.00003110","REF_FRAME":"TEME","TLE_LINE2":"2 45398  53.0525 232.3147 0000311  67.2724 292.8298 15.06404552169756","OBJECT_ID":"2020-019AQ","DECAY_DATE":null,"SEMIMAJOR_AXIS":"6925.335","GP_ID":"230011207","REV_AT_EPOCH":"16975","TIME_SYSTEM":"UTC","MEAN_ANOMALY":"292.8298","EPHEMERIS_TYPE":"0","ARG_OF_PERICENTER":"67.2724","MEAN_MOTION_DDOT":"0.0000000000000","PERIAPSIS":"546.984","RCS_SIZE":"LARGE","TLE_LINE1":"1 45398U 20019AQ  23103.09177524  .00023440  00000-0  15871-2 0  9992","MEAN_MOTION":"15.06404552","MEAN_ELEMENT_THEORY":"SGP4","BSTAR":"0.00158710000000","COUNTRY_CODE":"US","CENTER_NAME":"EARTH","RA_OF_ASC_NODE":"232.3147","ELEMENT_SET_NO":"999","FILE":"3886564","OBJECT_TYPE":"PAYLOAD","PERIOD":"95.592","INCLINATION":"53.0525","MEAN_MOTION_DOT":"0.00023440"}];
